OBJECT_NAME,OBJECT_ID,EPOCH,MEAN_MOTION,ECCENTRICITY,INCLINATION,RA_OF_ASC_NODE,ARG_OF_PERICENTER,MEAN_ANOMALY,EPHEMERIS_TYPE,CLASSIFICATION_TYPE,NORAD_CAT_ID,ELEMENT_SET_NO,REV_AT_EPOCH,BSTAR,MEAN_MOTION_DOT,MEAN_MOTION_DDOT
DUBAISAT-1,2009-041B,2026-07-07T07:15:57.881664,14.75158092,.00105437,98.0075,321.3429,14.0912,346.0589,0,U,35682,999,90806,.12168253E-3,.771E-5,0
OCEANSAT-2,2009-051A,2026-07-07T20:36:58.368096,13.99657466,.0016846,98.2318,173.6468,174.8056,185.3288,0,U,35931,999,88222,-.99553E-4,-.183E-5,0
WORLDVIEW-2 (WV-2),2009-055A,2026-07-07T18:16:10.475040,14.37905573,.0004976,98.4759,261.9303,148.2131,211.9357,0,U,35946,999,87860,.38406E-4,.72E-6,0
SMOS,2009-059A,2026-07-07T18:14:39.488928,14.39732940,.0001125,98.4430,15.7938,95.1159,265.0158,0,U,36036,999,87641,.75948E-4,.194E-5,0
YAOGAN-7,2009-069A,2026-07-07T03:03:51.409440,14.78030223,.00240564,98.0047,73.8694,338.2842,21.7346,0,U,36110,999,89257,.61972214E-4,.396E-5,0
TANDEM-X,2010-030A,2026-07-07T11:29:58.986816,15.19154052,.0001887,97.4457,195.8973,94.3019,265.8431,0,U,36605,999,88972,.21566E-4,.386E-5,0
CARTOSAT-2B,2010-035A,2026-07-07T20:15:09.948960,14.78612386,.0012372,97.9939,239.2607,120.4119,239.8316,0,U,36795,999,86290,.10504E-3,.717E-5,0
YAOGAN-10,2010-038A,2026-07-07T21:47:56.281056,14.85414257,.0001663,97.8972,212.1470,85.9298,34.4526,0,U,36834,999,86028,.16756E-3,.1389E-4,0
COSMO-SKYMED 4,2010-060A,2026-07-07T19:57:56.924640,14.82163444,.0001493,97.8898,12.1329,85.8589,274.2795,0,U,37216,999,84762,.42342E-4,.285E-5,0
RESOURCESAT-2,2011-015A,2026-07-07T18:45:27.407808,14.21604878,.0011149,98.7634,256.0802,192.1895,167.9014,0,U,37387,999,78910,.39547E-4,.42E-6,0
HAIYANG-2A,2011-043A,2026-07-07T20:43:29.918208,13.73674345,.0003882,99.3401,191.0711,50.3491,309.7999,0,U,37781,999,74949,-.19253E-3,-.223E-5,0
RASAT,2011-044D,2026-07-07T20:14:27.951648,14.68187797,.0021654,98.0574,279.9259,124.6562,19.6892,0,U,37791,999,79621,.64865E-4,.326E-5,0
SRMSAT,2011-058D,2026-07-07T12:20:05.633376,14.11579854,.00118785,19.9725,296.4406,67.5382,21.1361,0,U,37841,999,76069,.53719828E-4,.364E-5,0
PLEIADES 1A,2011-076F,2026-07-07T20:34:37.843680,14.58543868,.0001738,98.1966,263.6822,82.5790,51.9706,0,U,38012,999,77500,.18634E-4,.41E-6,0
ZIYUAN 1-02C (ZY 1-02C),2011-079A,2026-07-07T21:16:44.655744,14.38231477,.0005256,98.4058,255.7620,240.8174,230.1445,0,U,38038,999,76218,.73215E-4,.179E-5,0
ARIRANG-3 (KOMPSAT-3),2012-025B,2026-07-07T20:03:05.387328,14.62224753,.0006588,98.1180,145.9403,57.8211,302.3629,0,U,38338,999,75436,.7798E-4,.346E-5,0
EXACTVIEW-1 (ADS-1B),2012-039C,2026-07-07T06:03:13.533408,14.24990589,.00119067,98.9797,306.0977,112.2478,247.9964,0,U,38709,999,72556,.62814355E-4,.101E-5,0
SPOT 6,2012-047A,2026-07-07T20:19:49.604160,14.58536015,.0001145,98.2105,255.9136,78.6686,281.4642,0,U,38755,999,73606,.4468E-4,.162E-5,0
PLEIADES 1B,2012-068A,2026-07-07T20:46:34.455648,14.58573835,.0001631,98.1936,263.6325,81.5763,278.5622,0,U,39019,999,72386,.48096E-4,.178E-5,0
GOKTURK 2,2012-073A,2026-07-07T19:57:16.140384,14.75563797,.0000933,97.6816,25.2273,72.4634,287.6678,0,U,39030,999,72755,.62595E-4,.379E-5,0
LANDSAT 8,2013-008A,2026-07-07T18:18:49.912416,14.57108490,.0001348,98.2293,258.6531,94.4847,265.6506,0,U,39084,999,70089,.65594E-4,.25E-5,0
SARAL,2013-009A,2026-07-07T18:43:52.571712,14.32894453,.0001253,98.5555,15.0872,187.5932,172.5233,0,U,39086,999,69855,.39936E-4,.65E-6,0
GAOFEN-1,2013-018A,2026-07-07T20:49:25.041216,14.76512222,.0016397,97.9083,260.5149,195.0575,165.0148,0,U,39150,999,71129,-.26367E-5,-.69E-6,0
VNREDSAT 1,2013-021B,2026-07-07T20:30:04.387680,14.64878942,.0001664,97.9066,241.4766,81.0311,279.1080,0,U,39160,999,70331,.64959E-4,.302E-5,0
ARIRANG-5 (KOMPSAT-5),2013-042A,2026-07-07T20:24:10.986624,15.04516696,.0005359,97.6219,15.2598,74.8920,285.2899,0,U,39227,999,70696,.98459E-4,.1318E-4,0
SKYSAT-A,2013-066C,2026-07-07T16:37:48.433152,15.13088169,.0019918,97.3803,237.4366,240.8320,119.0919,0,U,39418,999,69158,.13405E-3,.2318E-4,0
DUBAISAT-2,2013-066D,2026-07-07T21:00:07.579872,15.10339883,.0009936,97.4578,178.4795,331.5843,28.4843,0,U,39419,999,68951,.14362E-3,.2294E-4,0
GPM-CORE,2014-009C,2026-07-07T17:33:38.088576,15.44985090,.0011115,64.9704,239.2998,259.6043,100.3845,0,U,39574,999,70098,.9701E-4,.4347E-4,0
SENTINEL-1A,2014-016A,2026-07-07T20:53:16.987200,14.59200352,.0001411,98.1785,196.1011,87.4243,272.7118,0,U,39634,999,65303,.10315E-4,.3E-7,0
KAZEOSAT 1,2014-024A,2026-07-07T20:05:31.191648,14.42035073,.0001279,98.3193,260.7705,80.8957,279.2378,0,U,39731,999,64153,.42984E-5,-.29E-6,0
