DUBAISAT-1              
1 35682U 09041B   26188.30275326  .00000771  00000+0  12168-3 0  9996
2 35682  98.0075 321.3429 0010543  14.0912 346.0589 14.75158092908069
OCEANSAT-2              
1 35931U 09051A   26188.85900889 -.00000183  00000+0 -99553-4 0  9996
2 35931  98.2318 173.6468 0016846 174.8056 185.3288 13.99657466882228
WORLDVIEW-2 (WV-2)      
1 35946U 09055A   26188.76123235  .00000072  00000+0  38406-4 0  9993
2 35946  98.4759 261.9303 0004976 148.2131 211.9357 14.37905573878602
SMOS                    
1 36036U 09059A   26188.76017927  .00000194  00000+0  75948-4 0  9995
2 36036  98.4430  15.7938 0001125  95.1159 265.0158 14.39732940876415
YAOGAN-7                
1 36110U 09069A   26188.12767835  .00000396  00000+0  61972-4 0  9995
2 36110  98.0047  73.8694 0024056 338.2842  21.7346 14.78030223892579
TANDEM-X                
1 36605U 10030A   26188.47915494  .00000386  00000+0  21566-4 0  9992
2 36605  97.4457 195.8973 0001887  94.3019 265.8431 15.19154052889726
CARTOSAT-2B             
1 36795U 10035A   26188.84386515  .00000717  00000+0  10504-3 0  9991
2 36795  97.9939 239.2607 0012372 120.4119 239.8316 14.78612386862903
YAOGAN-10               
1 36834U 10038A   26188.90829029  .00001389  00000+0  16756-3 0  9998
2 36834  97.8972 212.1470 0001663  85.9298  34.4526 14.85414257860281
COSMO-SKYMED 4          
1 37216U 10060A   26188.83190885  .00000285  00000+0  42342-4 0  9996
2 37216  97.8898  12.1329 0001493  85.8589 274.2795 14.82163444847628
RESOURCESAT-2           
1 37387U 11015A   26188.78156722  .00000042  00000+0  39547-4 0  9996
2 37387  98.7634 256.0802 0011149 192.1895 167.9014 14.21604878789105
HAIYANG-2A              
1 37781U 11043A   26188.86354072 -.00000223  00000+0 -19253-3 0  9996
2 37781  99.3401 191.0711 0003882  50.3491 309.7999 13.73674345749499
RASAT                   
1 37791U 11044D   26188.84337907  .00000326  00000+0  64865-4 0  9996
2 37791  98.0574 279.9259 0021654 124.6562  19.6892 14.68187797796217
SRMSAT                  
1 37841U 11058D   26188.51395409  .00000364  00000+0  53720-4 0  9992
2 37841  19.9725 296.4406 0011878  67.5382  21.1361 14.11579854760692
PLEIADES 1A             
1 38012U 11076F   26188.85738245  .00000041  00000+0  18634-4 0  9996
2 38012  98.1966 263.6822 0001738  82.5790  51.9706 14.58543868775003
ZIYUAN 1-02C (ZY 1-02C) 
1 38038U 11079A   26188.88662796  .00000179  00000+0  73215-4 0  9995
2 38038  98.4058 255.7620 0005256 240.8174 230.1445 14.38231477762182
ARIRANG-3 (KOMPSAT-3)   
1 38338U 12025B   26188.83547902  .00000346  00000+0  77980-4 0  9995
2 38338  98.1180 145.9403 0006588  57.8211 302.3629 14.62224753754367
EXACTVIEW-1 (ADS-1B)    
1 38709U 12039C   26188.25223997  .00000101  00000+0  62814-4 0  9992
2 38709  98.9797 306.0977 0011906 112.2478 247.9964 14.24990589725569
SPOT 6                  
1 38755U 12047A   26188.84710190  .00000162  00000+0  44680-4 0  9991
2 38755  98.2105 255.9136 0001145  78.6686 281.4642 14.58536015736065
PLEIADES 1B             
1 39019U 12068A   26188.86567657  .00000178  00000+0  48096-4 0  9990
2 39019  98.1936 263.6325 0001631  81.5763 278.5622 14.58573835723865
GOKTURK 2               
1 39030U 12073A   26188.83143681  .00000379  00000+0  62595-4 0  9996
2 39030  97.6816  25.2273 0000933  72.4634 287.6678 14.75563797727550
LANDSAT 8               
1 39084U 13008A   26188.76307769  .00000250  00000+0  65594-4 0  9995
2 39084  98.2293 258.6531 0001348  94.4847 265.6506 14.57108490700894
SARAL                   
1 39086U 13009A   26188.78046958  .00000065  00000+0  39936-4 0  9995
2 39086  98.5555  15.0872 0001253 187.5932 172.5233 14.32894453698553
GAOFEN-1                
1 39150U 13018A   26188.86765094 -.00000069  00000+0 -26367-5 0  9996
2 39150  97.9083 260.5149 0016397 195.0575 165.0148 14.76512222711298
VNREDSAT 1              
1 39160U 13021B   26188.85421745  .00000302  00000+0  64959-4 0  9998
2 39160  97.9066 241.4766 0001664  81.0311 279.1080 14.64878942703313
ARIRANG-5 (KOMPSAT-5)   
1 39227U 13042A   26188.85012716  .00001318  00000+0  98459-4 0  9999
2 39227  97.6219  15.2598 0005359  74.8920 285.2899 15.04516696706965
SKYSAT-A                
1 39418U 13066C   26188.69292168  .00002318  00000+0  13405-3 0  9998
2 39418  97.3803 237.4366 0019918 240.8320 119.0919 15.13088169691586
DUBAISAT-2              
1 39419U 13066D   26188.87508773  .00002294  00000+0  14362-3 0  9997
2 39419  97.4578 178.4795 0009936 331.5843  28.4843 15.10339883689512
GPM-CORE                
1 39574U 14009C   26188.73169084  .00004347  00000+0  97010-4 0  9993
2 39574  64.9704 239.2998 0011115 259.6043 100.3845 15.44985090700980
SENTINEL-1A             
1 39634U 14016A   26188.87033550  .00000003  00000+0  10315-4 0  9999
2 39634  98.1785 196.1011 0001411  87.4243 272.7118 14.59200352653035
KAZEOSAT 1              
1 39731U 14024A   26188.83716657 -.00000029  00000+0  42984-5 0  9995
2 39731  98.3193 260.7705 0001279  80.8957 279.2378 14.42035073641537
